STARLINK-2177_new
1 17759C 21017AP  21326.13286282  .00014073  00000-0  19355-3 0  3264
2 17759  53.0549  26.0228 0002943  38.3497 215.9897 15.56635295    11
STARLINK-2177_old
1 27759C 21017AP  21325.14125319  .00013125  00000-0  18074-3 0  3250
2 27759  53.0556  30.8278 0002865  36.6316  57.6926 15.56602002    15
